ONEWEB-0427             
1 50499U 21132AG  24364.49733783  .00000073  00000+0  15163-3 0  9997
2 50499  87.9102  81.8235 0002013 102.1547 257.9810 13.18685478151144
ONEWEB-0429             
1 50500U 21132AH  24364.48469167  .00000083  00000+0  17666-3 0  9992
2 50500  87.9107  81.8438 0001588 105.4101 254.7207 13.18686012151112
ONEWEB-0430             
1 50501U 21132AJ  24364.92888211  .00000170  00000+0  39778-3 0  9992
2 50501  87.9104  81.7534 0001826 116.3261 243.8059 13.18686767151211
ONEWEB-0432             
1 50502U 21132AK  24364.27761130  .00000087  00000+0  18827-3 0  9990
2 50502  87.9103  81.8740 0002744 111.1830 248.9595 13.18686217151082
ONEWEB-0440             
1 50503U 21132AL  24364.49258880  .00000092  00000+0  19947-3 0  9998
2 50503  87.9106  81.8256 0001433  92.9434 267.1862 13.18685924151105
ONEWEB-0450             
1 50504U 21132AM  24364.48640898  .00000108  00000+0  24057-3 0  9998
2 50504  87.9107  81.8554 0001504 113.7704 246.3586 13.18685430151136
ONEWEB-0410             
1 51622U 22012A   24364.77851793 -.00000011  00000+0 -62635-4 0  9998
2 51622  87.9103 112.3133 0002844  83.2541 276.8914 13.17648486143329
ONEWEB-0411             
1 51623U 22012B   24365.12136057 -.00000422  00000+0 -12465-2 0  9998
2 51623  87.8915 142.6471 0001705 122.9686 237.1605 13.10375789140620
