<?xml version="1.0" encoding="UTF-8"?>
<ndm xmlns:xsi="http://www.w3.org/2001/XMLSchema-instance" xsi:noNamespaceSchemaLocation="https://sanaregistry.org/r/ndmxml_unqualified/ndmxml-2.0.0-master-2.0.xsd">
<omm id="CCSDS_OMM_VERS" version="2.0">
<header><CREATION_DATE/><ORIGINATOR/></header><body><segment><metadata><OBJECT_NAME>ONEWEB-0427</OBJECT_NAME><OBJECT_ID>2021-132AG</OBJECT_ID><CENTER_NAME>EARTH</CENTER_NAME><REF_FRAME>TEME</REF_FRAME><TIME_SYSTEM>UTC</TIME_SYSTEM><MEAN_ELEMENT_THEORY>SGP4</MEAN_ELEMENT_THEORY></metadata><data><meanElements><EPOCH>2024-12-29T11:56:09.988512</EPOCH><MEAN_MOTION>13.18685478</MEAN_MOTION><ECCENTRICITY>.0002013</ECCENTRICITY><INCLINATION>87.9102</INCLINATION><RA_OF_ASC_NODE>81.8235</RA_OF_ASC_NODE><ARG_OF_PERICENTER>102.1547</ARG_OF_PERICENTER><MEAN_ANOMALY>257.9810</MEAN_ANOMALY></meanElements><tleParameters><EPHEMERIS_TYPE>0</EPHEMERIS_TYPE><CLASSIFICATION_TYPE>U</CLASSIFICATION_TYPE><NORAD_CAT_ID>50499</NORAD_CAT_ID><ELEMENT_SET_NO>999</ELEMENT_SET_NO><REV_AT_EPOCH>15114</REV_AT_EPOCH><BSTAR>.15163E-3</BSTAR><MEAN_MOTION_DOT>.73E-6</MEAN_MOTION_DOT><MEAN_MOTION_DDOT>0</MEAN_MOTION_DDOT></tleParameters></data></segment></body></omm>
<omm id="CCSDS_OMM_VERS" version="2.0">
<header><CREATION_DATE/><ORIGINATOR/></header><body><segment><metadata><OBJECT_NAME>ONEWEB-0429</OBJECT_NAME><OBJECT_ID>2021-132AH</OBJECT_ID><CENTER_NAME>EARTH</CENTER_NAME><REF_FRAME>TEME</REF_FRAME><TIME_SYSTEM>UTC</TIME_SYSTEM><MEAN_ELEMENT_THEORY>SGP4</MEAN_ELEMENT_THEORY></metadata><data><meanElements><EPOCH>2024-12-29T11:37:57.360288</EPOCH><MEAN_MOTION>13.18686012</MEAN_MOTION><ECCENTRICITY>.0001588</ECCENTRICITY><INCLINATION>87.9107</INCLINATION><RA_OF_ASC_NODE>81.8438</RA_OF_ASC_NODE><ARG_OF_PERICENTER>105.4101</ARG_OF_PERICENTER><MEAN_ANOMALY>254.7207</MEAN_ANOMALY></meanElements><tleParameters><EPHEMERIS_TYPE>0</EPHEMERIS_TYPE><CLASSIFICATION_TYPE>U</CLASSIFICATION_TYPE><NORAD_CAT_ID>50500</NORAD_CAT_ID><ELEMENT_SET_NO>999</ELEMENT_SET_NO><REV_AT_EPOCH>15111</REV_AT_EPOCH><BSTAR>.17666E-3</BSTAR><MEAN_MOTION_DOT>.83E-6</MEAN_MOTION_DOT><MEAN_MOTION_DDOT>0</MEAN_MOTION_DDOT></tleParameters></data></segment></body></omm>
<omm id="CCSDS_OMM_VERS" version="2.0">
<header><CREATION_DATE/><ORIGINATOR/></header><body><segment><metadata><OBJECT_NAME>ONEWEB-0430</OBJECT_NAME><OBJECT_ID>2021-132AJ</OBJECT_ID><CENTER_NAME>EARTH</CENTER_NAME><REF_FRAME>TEME</REF_FRAME><TIME_SYSTEM>UTC</TIME_SYSTEM><MEAN_ELEMENT_THEORY>SGP4</MEAN_ELEMENT_THEORY></metadata><data><meanElements><EPOCH>2024-12-29T22:17:35.414304</EPOCH><MEAN_MOTION>13.18686767</MEAN_MOTION><ECCENTRICITY>.0001826</ECCENTRICITY><INCLINATION>87.9104</INCLINATION><RA_OF_ASC_NODE>81.7534</RA_OF_ASC_NODE><ARG_OF_PERICENTER>116.3261</ARG_OF_PERICENTER><MEAN_ANOMALY>243.8059</MEAN_ANOMALY></meanElements><tleParameters><EPHEMERIS_TYPE>0</EPHEMERIS_TYPE><CLASSIFICATION_TYPE>U</CLASSIFICATION_TYPE><NORAD_CAT_ID>50501</NORAD_CAT_ID><ELEMENT_SET_NO>999</ELEMENT_SET_NO><REV_AT_EPOCH>15121</REV_AT_EPOCH><BSTAR>.39778E-3</BSTAR><MEAN_MOTION_DOT>.17E-5</MEAN_MOTION_DOT><MEAN_MOTION_DDOT>0</MEAN_MOTION_DDOT></tleParameters></data></segment></body></omm>
<omm id="CCSDS_OMM_VERS" version="2.0">
<header><CREATION_DATE/><ORIGINATOR/></header><body><segment><metadata><OBJECT_NAME>ONEWEB-0432</OBJECT_NAME><OBJECT_ID>2021-132AK</OBJECT_ID><CENTER_NAME>EARTH</CENTER_NAME><REF_FRAME>TEME</REF_FRAME><TIME_SYSTEM>UTC</TIME_SYSTEM><MEAN_ELEMENT_THEORY>SGP4</MEAN_ELEMENT_THEORY></metadata><data><meanElements><EPOCH>2024-12-29T06:39:45.616320</EPOCH><MEAN_MOTION>13.18686217</MEAN_MOTION><ECCENTRICITY>.0002744</ECCENTRICITY><INCLINATION>87.9103</INCLINATION><RA_OF_ASC_NODE>81.8740</RA_OF_ASC_NODE><ARG_OF_PERICENTER>111.1830</ARG_OF_PERICENTER><MEAN_ANOMALY>248.9595</MEAN_ANOMALY></meanElements><tleParameters><EPHEMERIS_TYPE>0</EPHEMERIS_TYPE><CLASSIFICATION_TYPE>U</CLASSIFICATION_TYPE><NORAD_CAT_ID>50502</NORAD_CAT_ID><ELEMENT_SET_NO>999</ELEMENT_SET_NO><REV_AT_EPOCH>15108</REV_AT_EPOCH><BSTAR>.18827E-3</BSTAR><MEAN_MOTION_DOT>.87E-6</MEAN_MOTION_DOT><MEAN_MOTION_DDOT>0</MEAN_MOTION_DDOT></tleParameters></data></segment></body></omm>
<omm id="CCSDS_OMM_VERS" version="2.0">
<header><CREATION_DATE/><ORIGINATOR/></header><body><segment><metadata><OBJECT_NAME>ONEWEB-0440</OBJECT_NAME><OBJECT_ID>2021-132AL</OBJECT_ID><CENTER_NAME>EARTH</CENTER_NAME><REF_FRAME>TEME</REF_FRAME><TIME_SYSTEM>UTC</TIME_SYSTEM><MEAN_ELEMENT_THEORY>SGP4</MEAN_ELEMENT_THEORY></metadata><data><meanElements><EPOCH>2024-12-29T11:49:19.672320</EPOCH><MEAN_MOTION>13.18685924</MEAN_MOTION><ECCENTRICITY>.0001433</ECCENTRICITY><INCLINATION>87.9106</INCLINATION><RA_OF_ASC_NODE>81.8256</RA_OF_ASC_NODE><ARG_OF_PERICENTER>92.9434</ARG_OF_PERICENTER><MEAN_ANOMALY>267.1862</MEAN_ANOMALY></meanElements><tleParameters><EPHEMERIS_TYPE>0</EPHEMERIS_TYPE><CLASSIFICATION_TYPE>U</CLASSIFICATION_TYPE><NORAD_CAT_ID>50503</NORAD_CAT_ID><ELEMENT_SET_NO>999</ELEMENT_SET_NO><REV_AT_EPOCH>15110</REV_AT_EPOCH><BSTAR>.19947E-3</BSTAR><MEAN_MOTION_DOT>.92E-6</MEAN_MOTION_DOT><MEAN_MOTION_DDOT>0</MEAN_MOTION_DDOT></tleParameters></data></segment></body></omm>
<omm id="CCSDS_OMM_VERS" version="2.0">
<header><CREATION_DATE/><ORIGINATOR/></header><body><segment><metadata><OBJECT_NAME>ONEWEB-0450</OBJECT_NAME><OBJECT_ID>2021-132AM</OBJECT_ID><CENTER_NAME>EARTH</CENTER_NAME><REF_FRAME>TEME</REF_FRAME><TIME_SYSTEM>UTC</TIME_SYSTEM><MEAN_ELEMENT_THEORY>SGP4</MEAN_ELEMENT_THEORY></metadata><data><meanElements><EPOCH>2024-12-29T11:40:25.735872</EPOCH><MEAN_MOTION>13.18685430</MEAN_MOTION><ECCENTRICITY>.0001504</ECCENTRICITY><INCLINATION>87.9107</INCLINATION><RA_OF_ASC_NODE>81.8554</RA_OF_ASC_NODE><ARG_OF_PERICENTER>113.7704</ARG_OF_PERICENTER><MEAN_ANOMALY>246.3586</MEAN_ANOMALY></meanElements><tleParameters><EPHEMERIS_TYPE>0</EPHEMERIS_TYPE><CLASSIFICATION_TYPE>U</CLASSIFICATION_TYPE><NORAD_CAT_ID>50504</NORAD_CAT_ID><ELEMENT_SET_NO>999</ELEMENT_SET_NO><REV_AT_EPOCH>15113</REV_AT_EPOCH><BSTAR>.24057E-3</BSTAR><MEAN_MOTION_DOT>.108E-5</MEAN_MOTION_DOT><MEAN_MOTION_DDOT>0</MEAN_MOTION_DDOT></tleParameters></data></segment></body></omm>
<omm id="CCSDS_OMM_VERS" version="2.0">
<header><CREATION_DATE/><ORIGINATOR/></header><body><segment><metadata><OBJECT_NAME>ONEWEB-0410</OBJECT_NAME><OBJECT_ID>2022-012A</OBJECT_ID><CENTER_NAME>EARTH</CENTER_NAME><REF_FRAME>TEME</REF_FRAME><TIME_SYSTEM>UTC</TIME_SYSTEM><MEAN_ELEMENT_THEORY>SGP4</MEAN_ELEMENT_THEORY></metadata><data><meanElements><EPOCH>2024-12-29T18:41:03.949152</EPOCH><MEAN_MOTION>13.17648486</MEAN_MOTION><ECCENTRICITY>.0002844</ECCENTRICITY><INCLINATION>87.9103</INCLINATION><RA_OF_ASC_NODE>112.3133</RA_OF_ASC_NODE><ARG_OF_PERICENTER>83.2541</ARG_OF_PERICENTER><MEAN_ANOMALY>276.8914</MEAN_ANOMALY></meanElements><tleParameters><EPHEMERIS_TYPE>0</EPHEMERIS_TYPE><CLASSIFICATION_TYPE>U</CLASSIFICATION_TYPE><NORAD_CAT_ID>51622</NORAD_CAT_ID><ELEMENT_SET_NO>999</ELEMENT_SET_NO><REV_AT_EPOCH>14332</REV_AT_EPOCH><BSTAR>-.62635E-4</BSTAR><MEAN_MOTION_DOT>-.11E-6</MEAN_MOTION_DOT><MEAN_MOTION_DDOT>0</MEAN_MOTION_DDOT></tleParameters></data></segment></body></omm>
<omm id="CCSDS_OMM_VERS" version="2.0">
<header><CREATION_DATE/><ORIGINATOR/></header><body><segment><metadata><OBJECT_NAME>ONEWEB-0411</OBJECT_NAME><OBJECT_ID>2022-012B</OBJECT_ID><CENTER_NAME>EARTH</CENTER_NAME><REF_FRAME>TEME</REF_FRAME><TIME_SYSTEM>UTC</TIME_SYSTEM><MEAN_ELEMENT_THEORY>SGP4</MEAN_ELEMENT_THEORY></metadata><data><meanElements><EPOCH>2024-12-30T02:54:45.553248</EPOCH><MEAN_MOTION>13.10375789</MEAN_MOTION><ECCENTRICITY>.0001705</ECCENTRICITY><INCLINATION>87.8915</INCLINATION><RA_OF_ASC_NODE>142.6471</RA_OF_ASC_NODE><ARG_OF_PERICENTER>122.9686</ARG_OF_PERICENTER><MEAN_ANOMALY>237.1605</MEAN_ANOMALY></meanElements><tleParameters><EPHEMERIS_TYPE>0</EPHEMERIS_TYPE><CLASSIFICATION_TYPE>U</CLASSIFICATION_TYPE><NORAD_CAT_ID>51623</NORAD_CAT_ID><ELEMENT_SET_NO>999</ELEMENT_SET_NO><REV_AT_EPOCH>14062</REV_AT_EPOCH><BSTAR>-.12465E-2</BSTAR><MEAN_MOTION_DOT>-.422E-5</MEAN_MOTION_DOT><MEAN_MOTION_DDOT>0</MEAN_MOTION_DDOT></tleParameters></data></segment></body></omm>

</ndm>
